From: horizons@ssd.jpl.nasa.gov (Horizons Ephemeris System)
Subject: [Horizons] SMALL BODY #C(500@10)_T(184P/Lovas 2) (1/1)
Date: March 1, 2021 at 1:22:59 PM PST

Automated mail xmit by MAIL_REQUEST, PID= 2301 Mon Mar  1 13:22:58 2021
++++++++++++++++++++++++++++++++ (part 1 of 1)  +++++++++++++++++++++++++++++++
*******************************************************************************
JPL/HORIZONS                    184P/Lovas 2               2021-Mar-01 13:22:58
Rec #:90001088 (+COV) Soln.date: 2020-Nov-17_13:05:34    # obs: 349 (1986-2020)

IAU76/J2000 helio. ecliptic osc. elements (au, days, deg., period=Julian yrs):

 EPOCH=  2456460.5 ! 2013-Jun-17.0000000 (TDB)    RMSW= n.a.
  EC= .6042511059009203   QR= 1.394023431475956   TP= 2456501.965523215
  OM= 277.7449762902223   W= 78.0609122489256     IN= 1.551448934286068
  A= 3.522494825031523    MA= 353.8181896407697   ADIST= 5.650966218587089
  PER= 6.6112527393495    N= .149083135           ANGMOM= .025724838
  DAN= 1.98787            DDN= 2.55585            L= 355.801636
  B= 1.5178802            MOID= .39081201         TP= 2013-Jul-28.4655232150

Comet physical (GM= km^3/s^2; RAD= km):
  GM= n.a.                RAD= 3.1
  M1=  18.4     M2=  n.a.     k1=  5.5    k2= n.a.     PHCOF= n.a.

Comet non-gravitational force model (AMRAT=m^2/kg;A1-A3=au/d^2;DT=days;R0=au):
  AMRAT=  0.                                      DT=  0.
  A1= 0.                  A2= -1.216985634528E-11 A3= 0.
Standard model:
  ALN=  .1112620426   NK=  4.6142   NM=  2.15     NN=  5.093    R0=  2.808

COMET comments 
1: soln ref.= JPL#43, data arc: 1986-11-30 to 2020-11-05
2: k1=5.5;
*******************************************************************************


*******************************************************************************
Ephemeris / MAIL_REQUEST Mon Mar  1 13:22:58 2021 Pasadena, USA  / Horizons
*******************************************************************************
Target body name: 184P/Lovas 2                    {source: JPL#43}
Center body name: Sun (10)                        {source: DE431}
Center-site name: BODY CENTER
*******************************************************************************
Start time      : A.D. 1990-Jan-01 00:00:00.0000 TDB
Stop  time      : A.D. 2020-Dec-31 00:00:00.0000 TDB
Step-size       : 10080 minutes
*******************************************************************************
Center geodetic : 0.00000000,0.00000000,0.0000000 {E-lon(deg),Lat(deg),Alt(km)}
Center cylindric: 0.00000000,0.00000000,0.0000000 {E-lon(deg),Dxy(km),Dz(km)}
Center radii    : 696000.0 x 696000.0 x 696000.0 k{Equator, meridian, pole}    
Small perturbers: Yes                             {source: SB431-N16}
Output units    : AU-D
Output type     : GEOMETRIC cartesian states
Output format   : 6 (LT, range, and range-rate)
Reference frame : Ecliptic of J2000.0
*******************************************************************************
Initial IAU76/J2000 heliocentric ecliptic osculating elements (au, days, deg.):
 EPOCH=  2456460.5 ! 2013-Jun-17.0000000 (TDB)    RMSW= n.a.                  
  EC= .6042511059009203   QR= 1.394023431475956   TP= 2456501.965523215       
  OM= 277.7449762902223   W= 78.0609122489256     IN= 1.551448934286068       
 Equivalent ICRF heliocentric equatorial cartesian coordinates (au, au/d):
  X= 1.210399705842389E+00  Y=-7.763572617777273E-01  Z=-3.045020244364892E-01
 VX= 7.026786339846483E-03 VY= 1.495439294248760E-02 VZ= 6.754337061551463E-03
Comet physical (GM= km^3/s^2; RAD= km):                                        
  GM= n.a.                RAD= 3.1                                            
  M1=  18.4     M2=  n.a.     k1=  5.5    k2= n.a.     PHCOF= n.a.            
Comet non-gravitational force model (AMRAT=m^2/kg;A1-A3=au/d^2;DT=days;R0=au): 
  AMRAT=  0.                                      DT=  0.                     
  A1= 0.                  A2= -1.216985634528E-11 A3= 0.                      
Standard model:                                                               
  ALN=  .1112620426   NK=  4.6142   NM=  2.15     NN=  5.093    R0=  2.808    
*******************************************************************************
           JDTDB,            Calendar Date (TDB),                     LT,                     RG,                     RR,
**************************************************************************************************************************
$$SOE
2457440.500000000, A.D. 2016-Feb-22 00:00:00.0000,  3.193117864076037E-02,  5.528712196610003E+00,  1.905573842135696E-03,
2457447.500000000, A.D. 2016-Feb-29 00:00:00.0000,  3.200739898198478E-02,  5.541909339593611E+00,  1.865080715016521E-03,
2457454.500000000, A.D. 2016-Mar-07 00:00:00.0000,  3.208198745629885E-02,  5.554823933580452E+00,  1.824847470064742E-03,
2457461.500000000, A.D. 2016-Mar-14 00:00:00.0000,  3.215495475703589E-02,  5.567457830063796E+00,  1.784882280427350E-03,
2457468.500000000, A.D. 2016-Mar-21 00:00:00.0000,  3.222631179039867E-02,  5.579812917394119E+00,  1.745187756426858E-03,
2457475.500000000, A.D. 2016-Mar-28 00:00:00.0000,  3.229606947649385E-02,  5.591891086329274E+00,  1.705762105236400E-03,
2457482.500000000, A.D. 2016-Apr-04 00:00:00.0000,  3.236423858323827E-02,  5.603694201276265E+00,  1.666599681831365E-03,
2457489.500000000, A.D. 2016-Apr-11 00:00:00.0000,  3.243082959513707E-02,  5.615224077570891E+00,  1.627692612660277E-03,
2457496.500000000, A.D. 2016-Apr-18 00:00:00.0000,  3.249585268866402E-02,  5.626482477214958E+00,  1.589033842009240E-03,
2457503.500000000, A.D. 2016-Apr-25 00:00:00.0000,  3.255931776506109E-02,  5.637471114555370E+00,  1.550616379359017E-03,
2457510.500000000, A.D. 2016-May-02 00:00:00.0000,  3.262123441312564E-02,  5.648191649840927E+00,  1.512431739303398E-03,
2457517.500000000, A.D. 2016-May-09 00:00:00.0000,  3.268161185804987E-02,  5.658645680364142E+00,  1.474470578345300E-03,
2457524.500000000, A.D. 2016-May-16 00:00:00.0000,  3.274045894278480E-02,  5.668834737234523E+00,  1.436723407536735E-03,
2457531.500000000, A.D. 2016-May-23 00:00:00.0000,  3.279778412923115E-02,  5.678760285584757E+00,  1.399180895909100E-03,
2457538.500000000, A.D. 2016-May-30 00:00:00.0000,  3.285359550759700E-02,  5.688423726190955E+00,  1.361834002360431E-03,
2457545.500000000, A.D. 2016-Jun-06 00:00:00.0000,  3.290790080970592E-02,  5.697826397776870E+00,  1.324674047307387E-03,
2457552.500000000, A.D. 2016-Jun-13 00:00:00.0000,  3.296070742427341E-02,  5.706969579658926E+00,  1.287692733520302E-03,
2457559.500000000, A.D. 2016-Jun-20 00:00:00.0000,  3.301202241074781E-02,  5.715854494142720E+00,  1.250882027264768E-03,
2457566.500000000, A.D. 2016-Jun-27 00:00:00.0000,  3.306185250179887E-02,  5.724482306953879E+00,  1.214233679962164E-03,
2457573.500000000, A.D. 2016-Jul-04 00:00:00.0000,  3.311020408284595E-02,  5.732854123693495E+00,  1.177738808808131E-03,
2457580.500000000, A.D. 2016-Jul-11 00:00:00.0000,  3.315708319361548E-02,  5.740970990107781E+00,  1.141389695977231E-03,
2457587.500000000, A.D. 2016-Jul-18 00:00:00.0000,  3.320249561789057E-02,  5.748833907627738E+00,  1.105181228633571E-03,
2457594.500000000, A.D. 2016-Jul-25 00:00:00.0000,  3.324644694613667E-02,  5.756443844212455E+00,  1.069108550876793E-03,
2457601.500000000, A.D. 2016-Aug-01 00:00:00.0000,  3.328894255803103E-02,  5.763801731324167E+00,  1.033166150905751E-03,
2457608.500000000, A.D. 2016-Aug-08 00:00:00.0000,  3.332998760670795E-02,  5.770908461200431E+00,  9.973484198886509E-04,
2457615.500000000, A.D. 2016-Aug-15 00:00:00.0000,  3.336958702244131E-02,  5.777764887491697E+00,  9.616499650455818E-04,
2457622.500000000, A.D. 2016-Aug-22 00:00:00.0000,  3.340774552305425E-02,  5.784371827063725E+00,  9.260656702527605E-04,
2457629.500000000, A.D. 2016-Aug-29 00:00:00.0000,  3.344446762498819E-02,  5.790730061914104E+00,  8.905906859503741E-04,
2457636.500000000, A.D. 2016-Sep-05 00:00:00.0000,  3.347975765359976E-02,  5.796840340955118E+00,  8.552204028176715E-04,
2457643.500000000, A.D. 2016-Sep-12 00:00:00.0000,  3.351361975172953E-02,  5.802703381497376E+00,  8.199503798342185E-04,
2457650.500000000, A.D. 2016-Sep-19 00:00:00.0000,  3.354605788206539E-02,  5.808319869659017E+00,  7.847760671762432E-04,
2457657.500000000, A.D. 2016-Sep-26 00:00:00.0000,  3.357707581014710E-02,  5.813690457423041E+00,  7.496921387711981E-04,
2457664.500000000, A.D. 2016-Oct-03 00:00:00.0000,  3.360667706892150E-02,  5.818815756500230E+00,  7.146926778071411E-04,
2457671.500000000, A.D. 2016-Oct-10 00:00:00.0000,  3.363486498279665E-02,  5.823696342493993E+00,  6.797736735820774E-04,
2457678.500000000, A.D. 2016-Oct-17 00:00:00.0000,  3.366164275608322E-02,  5.828332770213533E+00,  6.449327538108209E-04,
2457685.500000000, A.D. 2016-Oct-24 00:00:00.0000,  3.368701348786193E-02,  5.832725576248034E+00,  6.101668979723959E-04,
2457692.500000000, A.D. 2016-Oct-31 00:00:00.0000,  3.371098013947278E-02,  5.836875273337625E+00,  5.754724190242971E-04,
2457699.500000000, A.D. 2016-Nov-07 00:00:00.0000,  3.373354551932871E-02,  5.840782347743936E+00,  5.408454987801114E-04,
2457706.500000000, A.D. 2016-Nov-14 00:00:00.0000,  3.375471228276575E-02,  5.844447259224146E+00,  5.062823988898727E-04,
2457713.500000000, A.D. 2016-Nov-21 00:00:00.0000,  3.377448293658954E-02,  5.847870441818193E+00,  4.717795138876029E-04,
2457720.500000000, A.D. 2016-Nov-28 00:00:00.0000,  3.379285984480761E-02,  5.851052304841301E+00,  4.373333865701411E-04,
2457727.500000000, A.D. 2016-Dec-05 00:00:00.0000,  3.380984523466984E-02,  5.853993233929826E+00,  4.029407048672267E-04,
2457734.500000000, A.D. 2016-Dec-12 00:00:00.0000,  3.382544120122101E-02,  5.856693591829528E+00,  3.685982076889816E-04,
2457741.500000000, A.D. 2016-Dec-19 00:00:00.0000,  3.383964970244711E-02,  5.859153717555172E+00,  3.343022623909024E-04,
